NORAD_CAT_ID,OBJECT_NAME,OBJECT_TYPE,EPOCH,MEAN_MOTION,ECCENTRICITY,INCLINATION,RA_OF_ASC_NODE,ARG_OF_PERICENTER,MEAN_ANOMALY,BSTAR,MEAN_MOTION_DOT,MEAN_MOTION_DDOT,TLE_LINE0,TLE_LINE1,TLE_LINE2,SEMIMAJOR_AXIS,PERIOD,APOGEE,PERIGEE,DECAYED
51990.0,STARLINK-3657,PAYLOAD,2022-05-29 14:00:01,15.53893991,0.0001268,53.2173,99.5628,102.2165,92.4152,-0.011945,-0.00716118,0.0,0 STARLINK-3657,1 51990U 22025AL  22149.58334491 -.00716118  00000-0 -11945-1 0  9997,2 51990  53.2173  99.5628 0001268 102.2165  92.4152 15.53893991  1300,6783.507,92.67,406.232,404.511,0.0
51990.0,STARLINK-3657,PAYLOAD,2022-05-29 22:00:00,15.53382486,0.0001286999999999,53.2174,97.958,103.9547,156.0958,-0.012111,-0.00712893,0.0,0 STARLINK-3657,1 51990U 22025AL  22149.91667824 -.00712893  00000-0 -12111-1 0  9995,2 51990  53.2174  97.9580 0001287 103.9547 156.0958 15.53382486  1306,6784.996,92.701,407.734,405.987,0.0
51990.0,STARLINK-3657,PAYLOAD,2022-05-30 10:47:44,15.53907248,0.0001184,53.2109,95.4227,113.4233,246.6904,-0.0032953,-0.0021089,0.0,0 STARLINK-3657,1 51990U 22025AL  22150.44982552 -.00210890  00000-0 -32953-2 0  9990,2 51990  53.2109  95.4227 0001184 113.4233 246.6904 15.53907248 14152,6783.468000000003,92.67,406.136,404.53,0.0
51990.0,STARLINK-3657,PAYLOAD,2022-05-30 13:53:08,15.537511300000002,0.0001393,53.2109,94.8035,99.7065,260.4104,-0.0034649,-0.00220212,0.0,0 STARLINK-3657,1 51990U 22025AL  22150.57857341 -.00220212  00000-0 -34649-2 0  9994,2 51990  53.2109  94.8035 0001393  99.7065 260.4104 15.53751130 13076,6783.922,92.679,406.732,404.842,0.0
51990.0,STARLINK-3657,PAYLOAD,2022-05-30 20:00:01,15.51978084,0.0001173,53.2175,93.5516,106.0925,240.6997,-0.012681,-0.0070956999999999,0.0,0 STARLINK-3657,1 51990U 22025AL  22150.83334491 -.00709570  00000-0 -12681-1 0  9999,2 51990  53.2175  93.5516 0001173 106.0925 240.6997 15.51978084 14216,6789.0880000000025,92.785,411.75,410.157,0.0
51990.0,STARLINK-3657,PAYLOAD,2022-05-30 22:00:00,15.51852361,0.0001126,53.2176,93.1521,96.3647,356.2643,-0.012802,-0.00712788,0.0,0 STARLINK-3657,1 51990U 22025AL  22150.91667824 -.00712788  00000-0 -12802-1 0  9997,2 51990  53.2176  93.1521 0001126  96.3647 356.2643 15.51852361  1306,6789.455,92.792,412.084,410.555,0.0
51990.0,STARLINK-3657,PAYLOAD,2022-05-31 06:00:02,15.51338904,0.0001238,53.2175,91.5541,93.5096,62.1517,-0.012932,-0.00707334,0.0,0 STARLINK-3657,1 51990U 22025AL  22151.25002315 -.00707334  00000-0 -12932-1 0  9998,2 51990  53.2175  91.5541 0001238  93.5096  62.1517 15.51338904  1305,6790.953,92.823,413.659,411.977,0.0
51990.0,STARLINK-3657,PAYLOAD,2022-05-31 19:15:33,15.52008783,0.0001315999999999,53.2124,88.9306,93.414,266.7022,-0.003547,-0.00211867,0.0,0 STARLINK-3657,1 51990U 22025AL  22151.80246579 -.00211867  00000-0 -35470-2 0  9995,2 51990  53.2124  88.9306 0001316  93.4140 266.7022 15.52008783 14367,6788.999,92.783,411.757,409.97,0.0
51990.0,STARLINK-3657,PAYLOAD,2022-05-31 22:00:00,15.50241061,0.0001267,53.2177,88.3576,91.6244,188.0822,-0.0090841,-0.0049113,0.0,0 STARLINK-3657,1 51990U 22025AL  22151.91667824 -.00491130  00000-0 -90841-2 0  9993,2 51990  53.2177  88.3576 0001267  91.6244 188.0822 15.50241061  1308,6794.159000000002,92.889,416.884,415.163,0.0
51990.0,STARLINK-3657,PAYLOAD,2022-06-01 04:00:00,15.50037768,0.0001304,53.2175,87.1622,98.7225,136.8547,-0.011011,-0.00584033,0.0,0 STARLINK-3657,1 51990U 22025AL  22152.16667824 -.00584033  00000-0 -11011-1 0  9997,2 51990  53.2175  87.1622 0001304  98.7225 136.8547 15.50037768 14423,6794.753000000002,92.901,417.504,415.732,0.0
51990.0,STARLINK-3657,PAYLOAD,2022-06-01 10:44:04,15.50981461,7.900000000000001e-05,53.2117,85.8435,134.7126,225.3949,-0.0035689,-0.00205624,0.0,0 STARLINK-3657,1 51990U 22025AL  22152.44727596 -.00205624  00000-0 -35689-2 0  9995,2 51990  53.2117  85.8435 0000790 134.7126 225.3949 15.50981461 14467,6791.996,92.844,414.398,413.325,0.0
51990.0,STARLINK-3657,PAYLOAD,2022-06-01 20:00:01,15.491126,0.0001168,53.2175,83.9709,108.6809,248.0393,-0.014063,-0.00719271,0.0,0 STARLINK-3657,1 51990U 22025AL  22152.83334491 -.00719271  00000-0 -14063-1 0  9996,2 51990  53.2175  83.9709 0001168 108.6809 248.0393 15.49112600 14523,6797.458000000001,92.956,420.117,418.529,0.0
51990.0,STARLINK-3657,PAYLOAD,2022-06-03 01:27:33,15.48666432,5.610000000000002e-05,53.2132,78.1353,164.2281,195.8746,-0.0030276,-0.0016169,0.0,0 STARLINK-3657,1 51990U 22025AL  22154.06079971 -.00161690  00000-0 -30276-2 0  9993,2 51990  53.2132  78.1353 0000561 164.2281 195.8746 15.48666432 14713,6798.763000000001,92.983,421.01,420.247,0.0
51990.0,STARLINK-3657,PAYLOAD,2022-06-03 06:07:04,15.48062257,0.0002203,53.2127,77.2135,50.3377,309.7826,-0.00435,-0.00225477,0.0,0 STARLINK-3657,1 51990U 22025AL  22154.25490841 -.00225477  00000-0 -43500-2 0  9995,2 51990  53.2127  77.2135 0002203  50.3377 309.7826 15.48062257 14744,6800.531999999997,93.02,423.895,420.899,0.0
51990.0,STARLINK-3657,PAYLOAD,2022-06-04 00:43:44,15.47007959,0.0003111,53.2117,73.5187,12.1739,347.9344,-0.0039528,-0.00198263,0.0,0 STARLINK-3657,1 51990U 22025AL  22155.03037474 -.00198263  00000-0 -39528-2 0  9998,2 51990  53.2117  73.5187 0003111  12.1739 347.9344 15.47007959 14865,6803.621,93.083,427.603,423.37,0.0
51990.0,STARLINK-3657,PAYLOAD,2022-06-04 06:56:47,15.46185978,0.0002417,53.21100000000001,72.2909,61.6157,298.5095,-0.0058428,-0.00281619,0.0,0 STARLINK-3657,1 51990U 22025AL  22155.28944271 -.00281619  00000-0 -58428-2 0  9995,2 51990  53.2110  72.2909 0002417  61.6157 298.5095 15.46185978 14903,6806.033,93.132,429.543,426.253,0.0
51990.0,STARLINK-3657,PAYLOAD,2022-06-05 20:00:01,15.42993912,0.0001184,53.2176,64.9356,90.5449,221.8461,-0.017408,-0.00720357,0.0,0 STARLINK-3657,1 51990U 22025AL  22156.83334491 -.00720357  00000-0 -17408-1 0  9993,2 51990  53.2176  64.9356 0001184  90.5449 221.8461 15.42993912 15148,6815.416,93.325,438.088,436.474,0.0
51990.0,STARLINK-3657,PAYLOAD,2022-06-05 22:00:00,15.42866462,0.0001115,53.2175,64.5416,80.0681,335.4607,-0.0175,-0.00720986,0.0,0 STARLINK-3657,1 51990U 22025AL  22156.91667824 -.00720986  00000-0 -17500-1 0  9992,2 51990  53.2175  64.5416 0001115  80.0681 335.4607 15.42866462  1302,6815.791,93.333,438.416,436.896,0.0
51990.0,STARLINK-3657,PAYLOAD,2022-06-06 14:00:01,15.41844855,0.0001221,53.2171,61.3855,93.2999,65.9566,-0.018031,-0.00717965,0.0,0 STARLINK-3657,1 51990U 22025AL  22157.58334491 -.00717965  00000-0 -18031-1 0  9990,2 51990  53.2171  61.3855 0001221  93.2999  65.9566 15.41844855  1306,6818.802,93.395,441.499,439.834,0.0
51990.0,STARLINK-3657,PAYLOAD,2022-06-06 20:00:01,15.41464673,0.0001254,53.2174,60.2043,79.801,27.7197,-0.018362,-0.00721589,0.0,0 STARLINK-3657,1 51990U 22025AL  22157.83334491 -.00721589  00000-0 -18362-1 0  9992,2 51990  53.2174  60.2043 0001254  79.8010  27.7197 15.41464673 15291,6819.9230000000025,93.418,442.643,440.9330000000001,0.0
51990.0,STARLINK-3657,PAYLOAD,2022-06-06 22:00:00,15.41333908,0.0001341,53.2173,59.8109,81.6845,128.5158,-0.018298,-0.00716362,0.0,0 STARLINK-3657,1 51990U 22025AL  22157.91667824 -.00716362  00000-0 -18298-1 0  9991,2 51990  53.2173  59.8109 0001341  81.6845 128.5158 15.41333908  1301,6820.309,93.426,443.088,441.259,0.0
51990.0,STARLINK-3657,PAYLOAD,2022-06-07 14:00:01,15.40313442,0.0001214,53.2172,56.6621,103.3026,206.9483,-0.018903,-0.00715335,0.0,0 STARLINK-3657,1 51990U 22025AL  22158.58334491 -.00715335  00000-0 -18903-1 0  9998,2 51990  53.2172  56.6621 0001214 103.3026 206.9483 15.40313442  1308,6823.32,93.487,446.014,444.357,0.0
51990.0,STARLINK-3657,PAYLOAD,2022-06-07 22:00:00,15.39806047,0.0001156,53.2173,55.0914,84.7679,274.5868,-0.019343,-0.00719422,0.0,0 STARLINK-3657,1 51990U 22025AL  22158.91667824 -.00719422  00000-0 -19343-1 0  9994,2 51990  53.2173  55.0914 0001156  84.7679 274.5868 15.39806047 15464,6824.819,93.518,447.473,445.895,0.0
51990.0,STARLINK-3657,PAYLOAD,2022-06-08 14:00:01,15.38785342,0.0001127,53.2173,51.9496,91.5352,4.1938,-0.019984,-0.0071867999999999,0.0,0 STARLINK-3657,1 51990U 22025AL  22159.58334491 -.00718680  00000-0 -19984-1 0  9995,2 51990  53.2173  51.9496 0001127  91.5352   4.1938 15.38785342  1302,6827.837,93.58,450.472,448.9330000000001,0.0
51990.0,STARLINK-3657,PAYLOAD,2022-06-08 22:00:01,15.38274899,0.0001284999999999,53.2172,50.3827,77.2231,65.8366,-0.020296,-0.0071785,0.0,0 STARLINK-3657,1 51990U 22025AL  22159.91668981 -.00717850  00000-0 -20296-1 0  9992,2 51990  53.2172  50.3827 0001285  77.2231  65.8366 15.38274899 15612,6829.347,93.611,452.09,450.335,0.0
51990.0,STARLINK-3657,PAYLOAD,2022-06-09 14:00:01,15.37255407,0.0001308,53.2172,47.2478,93.1196,142.5731,-0.020999,-0.00718333,0.0,0 STARLINK-3657,1 51990U 22025AL  22160.58334491 -.00718333  00000-0 -20999-1 0  9990,2 51990  53.2172  47.2478 0001308  93.1196 142.5731 15.37255407  1305,6832.3669999999975,93.673,455.125,453.338,0.0
51990.0,STARLINK-3657,PAYLOAD,2022-06-09 20:00:01,15.36872937,0.0001361999999999,53.2175,46.0755,74.4733,105.3477,-0.021249,-0.00717934,0.0,0 STARLINK-3657,1 51990U 22025AL  22160.83334491 -.00717934  00000-0 -21249-1 0  9993,2 51990  53.2175  46.0755 0001362  74.4733 105.3477 15.36872937 15763,6833.5,93.697,456.296,454.434,0.0
51990.0,STARLINK-3657,PAYLOAD,2022-06-09 22:00:00,15.36744229,0.0001301,53.2174,45.6849,78.3116,202.8093,-0.021277,-0.00716026,0.0,0 STARLINK-3657,1 51990U 22025AL  22160.91667824 -.00716026  00000-0 -21277-1 0  9993,2 51990  53.2174  45.6849 0001301  78.3116 202.8093 15.36744229  1306,6833.882,93.705,456.636,454.857,0.0
51990.0,STARLINK-3657,PAYLOAD,2022-06-10 14:00:01,15.35723307,0.0001128,53.2173,42.5569,88.0687,282.0733,-0.021958,-0.00714986,0.0,0 STARLINK-3657,1 51990U 22025AL  22161.58334491 -.00714986  00000-0 -21958-1 0  9997,2 51990  53.2173  42.5569 0001128  88.0687 282.0733 15.35723307  1302,6836.91,93.767,459.546,458.004,0.0
